EUTELSAT 16A            
1 37836U 11057A   25206.34108291  .00000091  00000+0  00000+0 0  9992
2 37836   0.0637 354.3480 0005584 128.6499 319.0801  1.00269249  4057
EUTELSAT 21B            
1 38992U 12062B   25206.34220958  .00000118  00000+0  00000+0 0  9998
2 38992   0.0665 355.2723 0003024 121.7711 331.0523  1.00268525 46552
EUTELSAT 70B            
1 39020U 12069A   25206.13778179 -.00000056  00000+0  00000+0 0  9990
2 39020   0.0621 355.2911 0003595 128.9742 298.9159  1.00271084 46226
EUTELSAT 117 WEST A     
1 39122U 13012A   25206.15044655 -.00000025  00000+0  00000+0 0  9995
2 39122   0.0102  49.4621 0002829  84.8419 106.1500  1.00272834 45158
EUTELSAT 7B             
1 39163U 13022A   25206.24002906  .00000036  00000+0  00000+0 0  9995
2 39163   0.0669 354.6145 0002867  52.5253 349.4343  1.00271956 44670
EXPRESS-AT1             
1 39612U 14010A   25206.20630999  .00000066  00000+0  00000+0 0  9990
2 39612   0.0206  74.6412 0000097 244.4671 114.3231  1.00270452 41538
EXPRESS-AT2             
1 39613U 14010B   25206.59940508 -.00000294  00000+0  00000+0 0  9997
2 39613   0.0208  75.3875 0000067 204.6324  19.1620  1.00268221 41223
EUTELSAT 3B             
1 39773U 14030A   25206.24558696  .00000007  00000+0  00000+0 0  9992
2 39773   0.0616 357.0373 0003934 135.7131 261.9425  1.00270116 40788
